GLOBALSTAR M057         
1 25943U 99058A   24171.85846902 -.00000077  00000+0  14031-3 0  9997
2 25943  51.9997 296.4591 0001669   1.8149 358.2707 12.24787675122530
GLOBALSTAR M059         
1 25944U 99058B   24171.90571116 -.00000112  00000+0 -32316-3 0  9993
2 25944  52.0012 107.2454 0000838 345.3957  41.2067 11.99962963530557
GLOBALSTAR M056         
1 25945U 99058C   24171.64255309 -.00000116  00000+0 -32960-3 0  9997
2 25945  51.9954 119.2267 0000415 164.9940   6.3385 12.04776401118929
GLOBALSTAR M039         
1 25961U 99062A   24171.59454643 -.00000039  00000+0  35991-3 0  9996
2 25961  51.9858 293.0751 0002217 251.0797 108.9829 12.62294890134425
GLOBALSTAR M034         
1 25962U 99062B   24171.66310615 -.00000040  00000+0  65072-3 0  9990
2 25962  51.9855 233.7276 0013806  78.5081  41.1209 11.79428311 95611
GLOBALSTAR M029         
1 25963U 99062C   24171.91787194 -.00000068  00000+0  22774-3 0  9991
2 25963  51.9826 355.5616 0003339 117.7215  28.3546 11.99879328125633
GLOBALSTAR M061         
1 25964U 99062D   24171.85475451 -.00000088  00000+0 -12677-3 0  9999
2 25964  51.9811  52.4595 0006515   9.6218  70.2390 11.76761690 78523
